CHUTIAN-2 B             
1 66410U 25256B   25318.77885840  .00000718  00000+0  19263-3 0  9992
2 66410  98.2825  24.0282 0012677 271.4892  88.4850 14.50970184   829
ZK-1A R/B               
1 66411U 25256C   25318.65843693  .00003051  00000+0  13678-3 0  9997
2 66411  98.3233  24.3959 0233635 338.5588  20.5968 15.01045438   834
HULIANWANG DIGUI 13A    
1 66412U 25258A   25317.73056201  .00000058  00000+0  90880-4 0  9994
2 66412  50.0047  24.1929 0013881 257.7814 102.1545 14.25865434   526
HULIANWANG DIGUI 13B    
1 66413U 25258B   25316.74913053  .00000134  00000+0  12246-3 0  9996
2 66413  50.0040  28.3330 0013163 252.9196 107.0276 14.25997308   380
HULIANWANG DIGUI 13C    
1 66414U 25258C   25318.15070421  .00000179  00000+0  14124-3 0  9993
2 66414  50.0037  22.4091 0013240 259.1186 100.8238 14.25997093   582
HULIANWANG DIGUI 13D    
1 66415U 25258D   25317.44978191  .00000194  00000+0  14721-3 0  9996
2 66415  50.0052  25.3749 0013151 262.1757  97.7664 14.26054300   483
HULIANWANG DIGUI 13E    
1 66416U 25258E   25317.72975947  .00000170  00000+0  13682-3 0  9993
2 66416  50.0060  24.1903 0012451 262.5123  97.4376 14.26184541   528
HULIANWANG DIGUI 13F    
1 66417U 25258F   25316.60855654  .00000130  00000+0  12011-3 0  9993
2 66417  50.0012  28.9164 0012058 253.6630 106.2959 14.26237961   367
HULIANWANG DIGUI 13G    
1 66418U 25258G   25317.72963411  .00000170  00000+0  13660-3 0  9994
2 66418  50.0008  24.1756 0012381 260.9439  99.0074 14.26232788   522
HULIANWANG DIGUI 13H    
1 66419U 25258H   25317.37894845  .00000158  00000+0  13144-3 0  9993
2 66419  50.0011  25.6544 0011470 258.7384 101.2241 14.26388063   474
HULIANWANG DIGUI 13J    
1 66420U 25258J   25317.23857859  .00000153  00000+0  12925-3 0  9995
2 66420  50.0032  26.2522 0011017 262.7671  97.1990 14.26503563   448
CZ-12 R/B               
1 66421U 25258K   25317.75904289  .00000028  00000+0  58687-4 0  9990
2 66421  49.9960  23.7027 0064663 145.1923 215.3253 14.42307889   534
